SMDC ONE 2.4            
1 39469U 13072H   26068.55980652  .00015821  00000+0  65974-3 0  9996
2 39469 120.4883 328.0945 0137633 267.6479  90.8828 15.15767863102719
YAOGAN-36 05A           
1 57452U 23106A   26063.85122796  .00005028  00000+0  20950-3 0  9995
2 57452  35.0062 353.7983 0001493 236.3594 123.6979 15.23103701145233
