[{"OBJECT_NAME":"SMDC ONE 2.4","OBJECT_ID":"2013-072H","EPOCH":"2026-03-09T13:26:07.283328","MEAN_MOTION":15.15767863,"ECCENTRICITY":0.0137633,"INCLINATION":120.4883,"RA_OF_ASC_NODE":328.0945,"ARG_OF_PERICENTER":267.6479,"MEAN_ANOMALY":90.8828,"EPHEMERIS_TYPE":0,"CLASSIFICATION_TYPE":"U","NORAD_CAT_ID":39469,"ELEMENT_SET_NO":999,"REV_AT_EPOCH":10271,"BSTAR":0.00065974,"MEAN_MOTION_DOT":0.00015821,"MEAN_MOTION_DDOT":0},{"OBJECT_NAME":"YAOGAN-36 05A","OBJECT_ID":"2023-106A","EPOCH":"2026-03-04T20:25:46.095744","MEAN_MOTION":15.23103701,"ECCENTRICITY":0.0001493,"INCLINATION":35.0062,"RA_OF_ASC_NODE":353.7983,"ARG_OF_PERICENTER":236.3594,"MEAN_ANOMALY":123.6979,"EPHEMERIS_TYPE":0,"CLASSIFICATION_TYPE":"U","NORAD_CAT_ID":57452,"ELEMENT_SET_NO":999,"REV_AT_EPOCH":14523,"BSTAR":0.00020950106,"MEAN_MOTION_DOT":5.028e-5,"MEAN_MOTION_DDOT":0}]
